ORBCOMM FM20 [+]        
1 25416U 98046D   24094.69541186  .00001118  00000+0  43776-3 0  9994
2 25416  44.9941  99.0839 0002096 277.1670  82.8939 14.35043904341084
ORBCOMM FM16 [-]        
1 25417U 98046E   24094.95671406  .00001556  00000+0  57929-3 0  9994
2 25417  44.9940  93.8866 0005501 264.0989  95.9232 14.35963984341055
ORBCOMM FM15 [-]        
1 25418U 98046F   24094.69765670  .00001440  00000+0  54261-3 0  9991
2 25418  44.9971  99.0854 0005152 264.8235  95.2024 14.35697616341024
ORBCOMM FM14 [-]        
1 25419U 98046G   24094.75911313  .00001467  00000+0  55022-3 0  9991
2 25419  44.9955  97.9577 0003902 262.4393 266.6050 14.35850131340986
ORBCOMM FM13 [+]        
1 25420U 98046H   24094.75419305  .00001258  00000+0  48498-3 0  9994
2 25420  44.9973 102.6511 0005909 247.4070 112.6152 14.35165549340057
ORBCOMM FM21 [-]        
1 25475U 98053A   24094.70344129  .00001289  00000+0  49648-3 0  9990
2 25475  45.0081 187.1622 0002274 224.6828 135.3836 14.35131210334063
ORBCOMM FM22 [-]        
1 25476U 98053B   24094.69417575  .00001201  00000+0  46135-3 0  9997
2 25476  45.0068 184.6377 0003563 205.5201 154.5471 14.35625780334050
ORBCOMM FM23 [-]        
1 25477U 98053C   24094.94151131  .00001251  00000+0  48271-3 0  9997
2 25477  45.0080 188.4759 0002946 208.6314 151.4372 14.35166289334245
